0 THORAD AGENA D DEB
1 04741U 70025CQ  13280.31824655 -.00000230  00000-0 -11026-2 0    77
2 04741 100.2785 226.1016 0787820 184.6733 334.8479 11.93769391896294
0 THORAD AGENA D DEB
1 04741U 70025CQ  13282.33139742 -.00000003  00000-0  15060-3 0    88
2 04741 100.2787 227.6793 0787864 180.9467 346.5145 11.93766943896532
0 THORAD AGENA D DEB
1 04741U 70025CQ  13285.81916005  .00000399  00000-0  23701-2 0    97
2 04741 100.2797 230.4122 0787947 174.4893 215.4105 11.93764787896954
0 THORAD AGENA D DEB
1 04741U 70025CQ  13288.44014606  .00000301  00000-0  18260-2 0   104
2 04741 100.2806 232.4661 0787993 169.6421 319.2466 11.93767711897267
0 THORAD AGENA D DEB
1 04741U 70025CQ  13290.77522274  .00000009  00000-0  21215-3 0   119
2 04741 100.2811 234.2961 0788028 165.3256 274.3859 11.93771466897545
0 THORAD AGENA D DEB
1 04741U 70025CQ  13293.38312865 -.00000097  00000-0 -37575-3 0   128
2 04741 100.2812 236.3400 0788081 160.5045 322.0628 11.93772900897852
